{"type": "FeatureCollection", "features": [ {"type": "Feature", "properties": {"norad_id": 28649, "name": "IRS-P5 (CARTOSAT-1)", "group": "resource", "lat": -75.2388842226731, "lon": 153.29307257539188, "alt_km": 605.3518320474795, "timestamp": "2025-12-02T15:49:06.839327+00:00", "meta": {"OBJECT_NAME": "IRS-P5 (CARTOSAT-1)", "OBJECT_ID": "2005-017A", "EPOCH": "2025-12-02T01:46:36.348384", "MEAN_MOTION": 14.90343635, "ECCENTRICITY": 0.00018344, "INCLINATION": 97.5508, "RA_OF_ASC_NODE": 2.9606, "ARG_OF_PERICENTER": 54.2083, "MEAN_ANOMALY": 305.9306, "EPHEMERIS_TYPE": 0, "CLASSIFICATION_TYPE": "U", "NORAD_CAT_ID": 28649, "ELEMENT_SET_NO": 999, "REV_AT_EPOCH": 11445, "BSTAR": 0.00021173898, "MEAN_MOTION_DOT": 2.007e-05, "MEAN_MOTION_DDOT": 0}, "tle": {"line1": "1 28649U 05017A   25336.07403181  .00002007  00000+0  21174-3 0  9991", "line2": "2 28649  97.5508   2.9606 0001834  54.2083 305.9306 14.90343635114455"}}, "geometry": {"type": "Point", "coordinates": [153.29307257539188, -75.2388842226731]}}, {"type": "Feature", "properties": {"norad_id": 28893, "name": "SINAH 1", "group": "resource", "lat": 51.64768055369053, "lon": -64.23116308183671, "alt_km": 667.6665044862357, "timestamp": "2025-12-02T15:49:06.839338+00:00", "meta": {"OBJECT_NAME": "SINAH 1", "OBJECT_ID": "2005-043D", "EPOCH": "2025-12-02T07:02:08.917728", "MEAN_MOTION": 14.63943082, "ECCENTRICITY": 0.00147521, "INCLINATION": 98.2599, "RA_OF_ASC_NODE": 104.8229, "ARG_OF_PERICENTER": 168.4568, "MEAN_ANOMALY": 191.6975, "EPHEMERIS_TYPE": 0, "CLASSIFICATION_TYPE": "U", "NORAD_CAT_ID": 28893, "ELEMENT_SET_NO": 999, "REV_AT_EPOCH": 7171, "BSTAR": 0.00014859238, "MEAN_MOTION_DOT": 7.3e-06, "MEAN_MOTION_DDOT": 0}, "tle": {"line1": "1 28893U 05043D   25336.29315877  .00000730  00000+0  14859-3 0  9992", "line2": "2 28893  98.2599 104.8229 0014752 168.4568 191.6975 14.63943082 71711"}}, "geometry": {"type": "Point", "coordinates": [-64.23116308183671, 51.64768055369053]}}, {"type": "Feature", "properties": {"norad_id": 29079, "name": "EROS B", "group": "resource", "lat": 28.48881095219079, "lon": 88.76501020741165, "alt_km": 375.44126830721234, "timestamp": "2025-12-02T15:49:06.839349+00:00", "meta": {"OBJECT_NAME": "EROS B", "OBJECT_ID": "2006-014A", "EPOCH": "2025-12-02T06:29:04.934400", "MEAN_MOTION": 15.64275278, "ECCENTRICITY": 0.00025569, "INCLINATION": 97.3487, "RA_OF_ASC_NODE": 92.3763, "ARG_OF_PERICENTER": 232.2643, "MEAN_ANOMALY": 127.8385, "EPHEMERIS_TYPE": 0, "CLASSIFICATION_TYPE": "U", "NORAD_CAT_ID": 29079, "ELEMENT_SET_NO": 999, "REV_AT_EPOCH": 8916, "BSTAR": 0.0016185474, "MEAN_MOTION_DOT": 0.00156805, "MEAN_MOTION_DDOT": 0}, "tle": {"line1": "1 29079U 06014A   25336.27019600  .00156805  00000+0  16185-2 0  9999", "line2": "2 29079  97.3487  92.3763 0002556 232.2643 127.8385 15.64275278 89162"}}, "geometry": {"type": "Point", "coordinates": [88.76501020741165, 28.48881095219079]}}, {"type": "Feature", "properties": {"norad_id": 29228, "name": "RESURS-DK 1", "group": "resource", "lat": 69.74637409216058, "lon": -149.93334021262368, "alt_km": 527.9179419344482, "timestamp": "2025-12-02T15:49:06.839359+00:00", "meta": {"OBJECT_NAME": "RESURS-DK 1", "OBJECT_ID": "2006-021A", "EPOCH": "2025-12-02T04:19:11.373600", "MEAN_MOTION": 15.12062414, "ECCENTRICITY": 0.0007826, "INCLINATION": 69.9324, "RA_OF_ASC_NODE": 129.124, "ARG_OF_PERICENTER": 266.3432, "MEAN_ANOMALY": 93.6839, "EPHEMERIS_TYPE": 0, "CLASSIFICATION_TYPE": "U", "NORAD_CAT_ID": 29228, "ELEMENT_SET_NO": 999, "REV_AT_EPOCH": 7278, "BSTAR": 0.00024471447, "MEAN_MOTION_DOT": 4.115e-05, "MEAN_MOTION_DDOT": 0}, "tle": {"line1": "1 29228U 06021A   25336.17999275  .00004115  00000+0  24471-3 0  9991", "line2": "2 29228  69.9324 129.1240 0007826 266.3432  93.6839 15.12062414 72784"}}, "geometry": {"type": "Point", "coordinates": [-149.93334021262368, 69.74637409216058]}}, {"type": "Feature", "properties": {"norad_id": 29268, "name": "ARIRANG-2 (KOMPSAT-2)", "group": "resource", "lat": 13.98260480334452, "lon": 163.6604017599298, "alt_km": 671.3058386088605, "timestamp": "2025-12-02T15:49:06.839370+00:00", "meta": {"OBJECT_NAME": "ARIRANG-2 (KOMPSAT-2)", "OBJECT_ID": "2006-031A", "EPOCH": "2025-12-02T08:07:09.153696", "MEAN_MOTION": 14.64478627, "ECCENTRICITY": 0.00140811, "INCLINATION": 97.8265, "RA_OF_ASC_NODE": 165.3181, "ARG_OF_PERICENTER": 343.4995, "MEAN_ANOMALY": 140.3322, "EPHEMERIS_TYPE": 0, "CLASSIFICATION_TYPE": "U", "NORAD_CAT_ID": 29268, "ELEMENT_SET_NO": 999, "REV_AT_EPOCH": 3266, "BSTAR": 0.00011581323, "MEAN_MOTION_DOT": 5.69e-06, "MEAN_MOTION_DDOT": 0}, "tle": {"line1": "1 29268U 06031A   25336.33830039  .00000569  00000+0  11581-3 0  9993", "line2": "2 29268  97.8265 165.3181 0014081 343.4995 140.3322 14.64478627 32663"}}, "geometry": {"type": "Point", "coordinates": [163.6604017599298, 13.98260480334452]}}, {"type": "Feature", "properties": {"norad_id": 29709, "name": "LAPAN-TUBSAT", "group": "resource", "lat": -78.11339871610015, "lon": 103.86444914492564, "alt_km": 627.6649440274277, "timestamp": "2025-12-02T15:49:06.839381+00:00", "meta": {"OBJECT_NAME": "LAPAN-TUBSAT", "OBJECT_ID": "2007-001A", "EPOCH": "2025-12-02T06:33:52.777728", "MEAN_MOTION": 14.85644387, "ECCENTRICITY": 0.00135816, "INCLINATION": 98.1251, "RA_OF_ASC_NODE": 326.2153, "ARG_OF_PERICENTER": 105.0606, "MEAN_ANOMALY": 255.2113, "EPHEMERIS_TYPE": 0, "CLASSIFICATION_TYPE": "U", "NORAD_CAT_ID": 29709, "ELEMENT_SET_NO": 999, "REV_AT_EPOCH": 2191, "BSTAR": 0.00010275245, "MEAN_MOTION_DOT": 8.34e-06, "MEAN_MOTION_DDOT": 0}, "tle": {"line1": "1 29709U 07001A   25336.27352752  .00000834  00000+0  10275-3 0  9999", "line2": "2 29709  98.1251 326.2153 0013581 105.0606 255.2113 14.85644387 21915"}}, "geometry": {"type": "Point", "coordinates": [103.86444914492564, -78.11339871610015]}}, {"type": "Feature", "properties": {"norad_id": 31113, "name": "HAIYANG-1B", "group": "resource", "lat": -31.43614354668829, "lon": -33.50717212917878, "alt_km": 795.8685048856341, "timestamp": "2025-12-02T15:49:06.839391+00:00", "meta": {"OBJECT_NAME": "HAIYANG-1B", "OBJECT_ID": "2007-010A", "EPOCH": "2025-12-01T23:11:06.848736", "MEAN_MOTION": 14.30959078, "ECCENTRICITY": 0.00146137, "INCLINATION": 98.3306, "RA_OF_ASC_NODE": 320.6899, "ARG_OF_PERICENTER": 67.7414, "MEAN_ANOMALY": 292.5318, "EPHEMERIS_TYPE": 0, "CLASSIFICATION_TYPE": "U", "NORAD_CAT_ID": 31113, "ELEMENT_SET_NO": 999, "REV_AT_EPOCH": 97242, "BSTAR": 7.376544e-05, "MEAN_MOTION_DOT": 1.53e-06, "MEAN_MOTION_DDOT": 0}, "tle": {"line1": "1 31113U 07010A   25335.96605149  .00000153  00000+0  73765-4 0  9995", "line2": "2 31113  98.3306 320.6899 0014613  67.7414 292.5318 14.30959078972421"}}, "geometry": {"type": "Point", "coordinates": [-33.50717212917878, -31.43614354668829]}}, {"type": "Feature", "properties": {"norad_id": 31598, "name": "COSMO-SKYMED 1", "group": "resource", "lat": -33.12902233206761, "lon": -23.196247218649585, "alt_km": 587.2537864580263, "timestamp": "2025-12-02T15:49:06.839402+00:00", "meta": {"OBJECT_NAME": "COSMO-SKYMED 1", "OBJECT_ID": "2007-023A", "EPOCH": "2025-12-02T06:50:21.444288", "MEAN_MOTION": 14.95643437, "ECCENTRICITY": 0.0001511, "INCLINATION": 97.8846, "RA_OF_ASC_NODE": 161.6163, "ARG_OF_PERICENTER": 82.9552, "MEAN_ANOMALY": 277.184, "EPHEMERIS_TYPE": 0, "CLASSIFICATION_TYPE": "U", "NORAD_CAT_ID": 31598, "ELEMENT_SET_NO": 999, "REV_AT_EPOCH": 34, "BSTAR": 0.00043518864, "MEAN_MOTION_DOT": 4.779e-05, "MEAN_MOTION_DDOT": 0}, "tle": {"line1": "1 31598U 07023A   25336.28497042  .00004779  00000+0  43519-3 0  9994", "line2": "2 31598  97.8846 161.6163 0001511  82.9552 277.1840 14.95643437   345"}}, "geometry": {"type": "Point", "coordinates": [-23.196247218649585, -33.12902233206761]}}, {"type": "Feature", "properties": {"norad_id": 31698, "name": "TERRASAR-X", "group": "resource", "lat": 77.51099770759835, "lon": -161.63091983420634, "alt_km": 499.8657026829587, "timestamp": "2025-12-02T15:49:06.839413+00:00", "meta": {"OBJECT_NAME": "TERRASAR-X", "OBJECT_ID": "2007-026A", "EPOCH": "2025-12-01T15:40:02.654400", "MEAN_MOTION": 15.19150274, "ECCENTRICITY": 0.00019062, "INCLINATION": 97.4444, "RA_OF_ASC_NODE": 341.1963, "ARG_OF_PERICENTER": 89.1201, "MEAN_ANOMALY": 271.0252, "EPHEMERIS_TYPE": 0, "CLASSIFICATION_TYPE": "U", "NORAD_CAT_ID": 31698, "ELEMENT_SET_NO": 999, "REV_AT_EPOCH": 2323, "BSTAR": 7.6522775e-05, "MEAN_MOTION_DOT": 1.54e-05, "MEAN_MOTION_DDOT": 0}, "tle": {"line1": "1 31698U 07026A   25335.65280850  .00001540  00000+0  76523-4 0  9990", "line2": "2 31698  97.4444 341.1963 0001906  89.1201 271.0252 15.19150274 23239"}}, "geometry": {"type": "Point", "coordinates": [-161.63091983420634, 77.51099770759835]}}, {"type": "Feature", "properties": {"norad_id": 32060, "name": "WORLDVIEW-1 (WV-1)", "group": "resource", "lat": -81.32121758811124, "lon": -143.8748292009842, "alt_km": 500.39211915947453, "timestamp": "2025-12-02T15:49:06.839424+00:00", "meta": {"OBJECT_NAME": "WORLDVIEW-1 (WV-1)", "OBJECT_ID": "2007-041A", "EPOCH": "2025-12-02T06:46:50.643840", "MEAN_MOTION": 15.24414803, "ECCENTRICITY": 7.372e-05, "INCLINATION": 97.3833, "RA_OF_ASC_NODE": 93.9128, "ARG_OF_PERICENTER": 92.0884, "MEAN_ANOMALY": 268.0437, "EPHEMERIS_TYPE": 0, "CLASSIFICATION_TYPE": "U", "NORAD_CAT_ID": 32060, "ELEMENT_SET_NO": 999, "REV_AT_EPOCH": 1288, "BSTAR": 0.00045296717, "MEAN_MOTION_DOT": 0.00011044, "MEAN_MOTION_DDOT": 0}, "tle": {"line1": "1 32060U 07041A   25336.28253060  .00011044  00000+0  45297-3 0  9997", "line2": "2 32060  97.3833  93.9128 0000737  92.0884 268.0437 15.24414803 12887"}}, "geometry": {"type": "Point", "coordinates": [-143.8748292009842, -81.32121758811124]}}]}